STARLINK-31816          
1 59742U 24090N   26068.35089778 -.00001880  00000+0 -58813-4 0  9998
2 59742  42.9989 185.7850 0001371 286.0581  74.0119 15.27579477103365
KUIPER-00209            
1 67776U 26030N   26068.61786546  .00035298  00000+0  11963-2 0  9997
2 67776  51.8838 220.0775 0012191  59.1967 301.0215 15.30161950  5077
